NORAD_CAT_ID,OBJECT_NAME,OBJECT_TYPE,EPOCH,MEAN_MOTION,ECCENTRICITY,INCLINATION,RA_OF_ASC_NODE,ARG_OF_PERICENTER,MEAN_ANOMALY,BSTAR,MEAN_MOTION_DOT,MEAN_MOTION_DDOT,TLE_LINE0,TLE_LINE1,TLE_LINE2,SEMIMAJOR_AXIS,PERIOD,APOGEE,PERIGEE,DECAYED
52455.0,STARLINK-3890,PAYLOAD,2023-09-15 03:21:55,15.08823197,0.0001345,53.2181,178.781,90.8335,269.2811,0.00025285,3.737e-05,0.0,0 STARLINK-3890,1 52455U 22049E   23258.14022619  .00003737  00000-0  25285-3 0  9998,2 52455  53.2181 178.7810 0001345  90.8335 269.2811 15.08823197 75416,6917.932,95.439,540.727,538.866,0.0
52455.0,STARLINK-3890,PAYLOAD,2023-09-16 01:37:18,15.08842614,0.0001217,53.2178,174.6199,88.6123,271.5008,0.00013378,1.842e-05,0.0,0 STARLINK-3890,1 52455U 22049E   23259.06757934  .00001842  00000-0  13378-3 0  9990,2 52455  53.2178 174.6199 0001217  88.6123 271.5008 15.08842614 75559,6917.872,95.437,540.579,538.895,0.0
52455.0,STARLINK-3890,PAYLOAD,2023-09-16 04:48:04,15.08846377,0.0001198,53.2176,174.023,85.1427,274.9702,0.00018834,2.711e-05,0.0,0 STARLINK-3890,1 52455U 22049E   23259.20005567  .00002711  00000-0  18834-3 0  9992,2 52455  53.2176 174.0230 0001198  85.1427 274.9702 15.08846377 75417,6917.861,95.437,540.555,538.897,0.0
52455.0,STARLINK-3890,PAYLOAD,2023-09-17 03:03:29,15.08838104,0.0001109,53.2176,169.8599,83.2508,276.861,4.9706e-05,5.03e-06,0.0,0 STARLINK-3890,1 52455U 22049E   23260.12742802  .00000503  00000-0  49706-4 0  9995,2 52455  53.2176 169.8599 0001109  83.2508 276.8610 15.08838104 75719,6917.886,95.438,540.518,538.984,0.0
52455.0,STARLINK-3890,PAYLOAD,2023-09-18 01:18:53,15.08851949,0.0001174,53.2176,165.6978,85.4371,274.6755,7.3271e-05,8.79e-06,0.0,0 STARLINK-3890,1 52455U 22049E   23261.05478017  .00000879  00000-0  73271-4 0  9992,2 52455  53.2176 165.6978 0001174  85.4371 274.6755 15.08851949 75851,6917.844,95.437,540.521,538.897,0.0
52455.0,STARLINK-3890,PAYLOAD,2023-09-18 04:29:39,15.08855001,0.000111,53.217,165.102,84.3194,275.7925,9.2633e-05,1.187e-05,0.0,0 STARLINK-3890,1 52455U 22049E   23261.18725725  .00001187  00000-0  92633-4 0  9993,2 52455  53.2170 165.1020 0001110  84.3194 275.7925 15.08855001 75718,6917.835,95.437,540.467,538.932,0.0
52455.0,STARLINK-3890,PAYLOAD,2023-09-19 01:09:40,15.08845376,0.0001543,53.2181,161.233,52.2032,307.91,0.00019351,2.794e-05,0.0,0 STARLINK-3890,1 52455U 22049E   23262.04838350  .00002794  00000-0  19351-3 0  9998,2 52455  53.2181 161.2330 0001543  52.2032 307.9100 15.08845376 76006,6917.864,95.437,540.796,538.662,0.0
52455.0,STARLINK-3890,PAYLOAD,2023-09-20 02:35:49,15.08857033,0.0001478,53.2164,156.477,75.084,285.0315,0.00017146,2.443e-05,0.0,0 STARLINK-3890,1 52455U 22049E   23263.10821543  .00002443  00000-0  17146-3 0  9993,2 52455  53.2164 156.4770 0001478  75.0840 285.0315 15.08857033 76162,6917.828,95.436,540.716,538.671,0.0
52455.0,STARLINK-3890,PAYLOAD,2023-09-20 10:32:46,15.08834342,0.0001173,53.218,154.9873,123.2021,236.9084,-8.9893e-05,-1.718e-05,0.0,0 STARLINK-3890,1 52455U 22049E   23263.43942249 -.00001718  00000-0 -89893-4 0  9991,2 52455  53.2180 154.9873 0001173 123.2021 236.9084 15.08834342 76218,6917.898,95.438,540.574,538.951,0.0
52455.0,STARLINK-3890,PAYLOAD,2023-09-20 21:40:29,15.08822462,0.0001801,53.217,152.9064,111.1852,248.9333,-0.00032293,-5.421e-05,0.0,0 STARLINK-3890,1 52455U 22049E   23263.90311500 -.00005421  00000-0 -32293-3 0  9999,2 52455  53.2170 152.9064 0001801 111.1852 248.9333 15.08822462 76123,6917.934,95.439,541.045,538.553,0.0
52455.0,STARLINK-3890,PAYLOAD,2023-09-21 02:26:39,15.08822755,0.0001631,53.218,152.0163,97.4766,262.6412,-0.00019494,-3.388e-05,0.0,0 STARLINK-3890,1 52455U 22049E   23264.10184711 -.00003388  00000-0 -19494-3 0  9992,2 52455  53.2180 152.0163 0001631  97.4766 262.6412 15.08822755 76313,6917.933,95.439,540.926,538.67,0.0
52455.0,STARLINK-3890,PAYLOAD,2023-09-21 23:06:36,15.08871304,0.0001324,53.217,148.1501,103.1044,257.0096,0.00014892,2.085e-05,0.0,0 STARLINK-3890,1 52455U 22049E   23264.96291949  .00002085  00000-0  14892-3 0  9996,2 52455  53.2170 148.1501 0001324 103.1044 257.0096 15.08871304 76283,6917.785,95.436,540.566,538.734,0.0
52455.0,STARLINK-3890,PAYLOAD,2023-09-22 16:35:53,15.08825383,0.0001679,53.2172,144.8801,104.0446,256.0733,0.00023305,3.421e-05,0.0,0 STARLINK-3890,1 52455U 22049E   23265.69159157  .00003421  00000-0  23305-3 0  9995,2 52455  53.2172 144.8801 0001679 104.0446 256.0733 15.08825383 76553,6917.925,95.438,540.952,538.629,0.0
52455.0,STARLINK-3890,PAYLOAD,2023-09-22 21:22:03,15.0882246,0.0001513,53.2172,143.9874,109.8314,250.2842,0.00018564,2.666e-05,0.0,0 STARLINK-3890,1 52455U 22049E   23265.89031415  .00002666  00000-0  18564-3 0  9994,2 52455  53.2172 143.9874 0001513 109.8314 250.2842 15.08822460 76423,6917.934,95.439,540.846,538.752,0.0
52455.0,STARLINK-3890,PAYLOAD,2023-09-22 22:57:26,15.08820515,0.0001318,53.2169,143.6919,88.7974,271.3169,9.105e-05,1.161e-05,0.0,0 STARLINK-3890,1 52455U 22049E   23265.95656032  .00001161  00000-0  91050-4 0  9990,2 52455  53.2169 143.6919 0001318  88.7974 271.3169 15.08820515 76599,6917.94,95.439,540.717,538.893,0.0
52455.0,STARLINK-3890,PAYLOAD,2023-09-23 02:08:13,15.08823109,0.0001288,53.2171,143.0966,88.4745,271.6395,9.5625e-05,1.234e-05,0.0,0 STARLINK-3890,1 52455U 22049E   23266.08903973  .00001234  00000-0  95625-4 0  9997,2 52455  53.2171 143.0966 0001288  88.4745 271.6395 15.08823109 76458,6917.932,95.439,540.688,538.906,0.0
52455.0,STARLINK-3890,PAYLOAD,2023-09-23 16:26:40,15.08844045,0.0001282,53.2169,140.4208,90.6532,269.4607,-0.00018231,-3.188e-05,0.0,0 STARLINK-3890,1 52455U 22049E   23266.68519359 -.00003188  00000-0 -18231-3 0  9993,2 52455  53.2169 140.4208 0001282  90.6532 269.4607 15.08844045 76709,6917.868,95.437,540.62,538.846,0.0
52455.0,STARLINK-3890,PAYLOAD,2023-09-24 01:58:58,15.08846536,0.0001306,53.216,138.6372,87.6222,272.4919,-4.9105e-05,-1.069e-05,0.0,0 STARLINK-3890,1 52455U 22049E   23267.08262252 -.00001069  00000-0 -49105-4 0  9996,2 52455  53.2160 138.6372 0001306  87.6222 272.4919 15.08846536 76763,6917.86,95.437,540.629,538.822,0.0
52455.0,STARLINK-3890,PAYLOAD,2023-09-24 21:03:37,15.0883149,0.0001281,53.2159,135.0688,81.8696,278.2441,0.0001833,2.63e-05,0.0,0 STARLINK-3890,1 52455U 22049E   23267.87751732  .00002630  00000-0  18330-3 0  9997,2 52455  53.2159 135.0688 0001281  81.8696 278.2441 15.08831490 76885,6917.906,95.438,540.658,538.885,0.0
52455.0,STARLINK-3890,PAYLOAD,2023-09-25 08:11:19,15.08843833,0.0001529,53.2175,132.9867,83.1291,276.9875,0.00027756,4.133e-05,0.0,0 STARLINK-3890,1 52455U 22049E   23268.34119287  .00004133  00000-0  27756-3 0  9995,2 52455  53.2175 132.9867 0001529  83.1291 276.9875 15.08843833 76957,6917.869,95.437,540.791,538.676,0.0
52455.0,STARLINK-3890,PAYLOAD,2023-09-25 20:54:24,15.08846908,0.0001554,53.218,130.6082,91.2217,268.8953,0.00016445,2.331e-05,0.0,0 STARLINK-3890,1 52455U 22049E   23268.87111133  .00002331  00000-0  16445-3 0  9996,2 52455  53.2180 130.6082 0001554  91.2217 268.8953 15.08846908 76877,6917.859,95.437,540.799,538.649,0.0
52455.0,STARLINK-3890,PAYLOAD,2023-09-25 22:29:46,15.08854872,0.0001142,53.2159,130.3109,89.4899,270.6224,0.00025886,3.836e-05,0.0,0 STARLINK-3890,1 52455U 22049E   23268.93734543  .00003836  00000-0  25886-3 0  9999,2 52455  53.2159 130.3109 0001142  89.4899 270.6224 15.08854872 77049,6917.835,95.437,540.49,538.91,0.0
52455.0,STARLINK-3890,PAYLOAD,2023-09-26 20:45:11,15.0883486,0.0001696,53.2171,126.1461,70.9041,289.2134,-1.2831e-05,-4.92e-06,0.0,0 STARLINK-3890,1 52455U 22049E   23269.86472186 -.00000492  00000-0 -12831-4 0  9998,2 52455  53.2171 126.1461 0001696  70.9041 289.2134 15.08834860 77181,6917.896,95.438,540.934,538.588,0.0
52455.0,STARLINK-3890,PAYLOAD,2023-09-27 07:52:54,15.08832904,0.0001459,53.2164,124.0638,91.7056,268.4103,-9.3893e-06,-4.37e-06,0.0,0 STARLINK-3890,1 52455U 22049E   23270.32840384 -.00000437  00000-0 -93893-5 0  9997,2 52455  53.2164 124.0638 0001459  91.7056 268.4103 15.08832904 77092,6917.902,95.438,540.776,538.758,0.0
52455.0,STARLINK-3890,PAYLOAD,2023-09-27 23:46:45,15.08838395,0.0001445,53.2162,121.089,96.7212,263.3944,4.6977e-05,4.6e-06,0.0,0 STARLINK-3890,1 52455U 22049E   23270.99080494  .00000460  00000-0  46977-4 0  9992,2 52455  53.2162 121.0890 0001445  96.7212 263.3944 15.08838395 77357,6917.885,95.438,540.75,538.751,0.0
52455.0,STARLINK-3890,PAYLOAD,2023-09-28 20:26:45,15.08851312,0.0001483,53.2159,117.2239,95.5842,264.5319,0.00036463,5.522e-05,0.0,0 STARLINK-3890,1 52455U 22049E   23271.85192008  .00005522  00000-0  36463-3 0  9995,2 52455  53.2159 117.2239 0001483  95.5842 264.5319 15.08851312 77325,6917.846,95.437,540.737,538.685,0.0
52455.0,STARLINK-3890,PAYLOAD,2023-09-28 23:37:32,15.08852769,0.0001482,53.2158,116.6294,94.4775,265.6387,0.00037045,5.615e-05,0.0,0 STARLINK-3890,1 52455U 22049E   23271.98439916  .00005615  00000-0  37045-3 0  9991,2 52455  53.2158 116.6294 0001482  94.4775 265.6387 15.08852769 77504,6917.841,95.437,540.732,538.681,0.0
52455.0,STARLINK-3890,PAYLOAD,2023-09-29 18:42:09,15.08843894,0.0001359,53.2158,113.0596,105.6235,254.4907,0.00023552,3.463e-05,0.0,0 STARLINK-3890,1 52455U 22049E   23272.77928007  .00003463  00000-0  23552-3 0  9990,2 52455  53.2158 113.0596 0001359 105.6235 254.4907 15.08843894 77625,6917.868,95.437,540.674,538.793,0.0
52455.0,STARLINK-3890,PAYLOAD,2023-09-29 20:17:32,15.0884668,0.0001403,53.216,112.7629,99.3031,260.812,0.00011354,1.52e-05,0.0,0 STARLINK-3890,1 52455U 22049E   23272.84551828  .00001520  00000-0  11354-3 0  9990,2 52455  53.2160 112.7629 0001403  99.3031 260.8120 15.08846680 77471,6917.86,95.437,540.696,538.754,0.0
52455.0,STARLINK-3890,PAYLOAD,2023-09-30 18:32:57,15.0884221,0.0001398,53.2169,108.5992,111.579,248.5351,-8.5111e-05,-1.642e-05,0.0,0 STARLINK-3890,1 52455U 22049E   23273.77288288 -.00001642  00000-0 -85111-4 0  9990,2 52455  53.2169 108.5992 0001398 111.5790 248.5351 15.08842210 77775,6917.874,95.437,540.706,538.772,0.0
